[{"OBJECT_NAME":"OBJECT B","OBJECT_ID":"2024-205B","EPOCH":"2026-03-09T23:46:05.115936","MEAN_MOTION":15.28158697,"ECCENTRICITY":0.00105957,"INCLINATION":97.4192,"RA_OF_ASC_NODE":146.9311,"ARG_OF_PERICENTER":34.0947,"MEAN_ANOMALY":326.0972,"EPHEMERIS_TYPE":0,"CLASSIFICATION_TYPE":"U","NORAD_CAT_ID":61895,"ELEMENT_SET_NO":999,"REV_AT_EPOCH":7352,"BSTAR":0.00054154807,"MEAN_MOTION_DOT":0.00014827,"MEAN_MOTION_DDOT":0},{"OBJECT_NAME":"STARLINK-36475","OBJECT_ID":"2026-003S","EPOCH":"2026-03-09T11:23:45.797568","MEAN_MOTION":15.27598575,"ECCENTRICITY":0.00027501,"INCLINATION":43.0003,"RA_OF_ASC_NODE":228.0452,"ARG_OF_PERICENTER":293.0154,"MEAN_ANOMALY":67.0408,"EPHEMERIS_TYPE":0,"CLASSIFICATION_TYPE":"U","NORAD_CAT_ID":67350,"ELEMENT_SET_NO":999,"REV_AT_EPOCH":879,"BSTAR":0.0011626147,"MEAN_MOTION_DOT":0.00031889,"MEAN_MOTION_DDOT":0}]
